start=new Date('2022-02-01T00:00:00.000Z').valueOf();
sats=[{"REV_AT_EPOCH":"361","TLE_LINE1":"1 49409U 21104B   22031.91668981 -.00021584  00000-0 -13419-2 0  9992","EPHEMERIS_TYPE":"0","PERIAPSIS":"538.466","LAUNCH_DATE":"2021-11-13","SEMIMAJOR_AXIS":"6917.868","APOAPSIS":"541.000","BSTAR":"-0.00134190000000","MEAN_MOTION_DDOT":"0.0000000000000","RA_OF_ASC_NODE":"112.8692","RCS_SIZE":"LARGE","DECAY_DATE":null,"GP_ID":"195055863","TIME_SYSTEM":"UTC","PERIOD":"95.437","MEAN_MOTION_DOT":"-0.00021584","INCLINATION":"53.2200","MEAN_ELEMENT_THEORY":"SGP4","EPOCH":"2022-01-31T22:00:01.999584","ECCENTRICITY":"0.00018310","MEAN_MOTION":"15.08844088","NORAD_CAT_ID":"49409","OBJECT_NAME":"STARLINK-3075","CENTER_NAME":"EARTH","COUNTRY_CODE":"US","OBJECT_TYPE":"PAYLOAD","OBJECT_ID":"2021-104B","ARG_OF_PERICENTER":"42.1553","REF_FRAME":"TEME","TLE_LINE2":"2 49409  53.2200 112.8692 0001831  42.1553  15.3275 15.08844088  3611","SITE":"AFETR","MEAN_ANOMALY":"15.3275","FILE":"3288814","CLASSIFICATION_TYPE":"U","ELEMENT_SET_NO":"999"},{"LAUNCH_DATE":"2021-11-13","PERIAPSIS":"538.326","TLE_LINE1":"1 49410U 21104C   22031.91668981 -.00020311  00000-0 -12614-2 0  9997","EPHEMERIS_TYPE":"0","REV_AT_EPOCH":"360","BSTAR":"-0.00126140000000","APOAPSIS":"541.123","SEMIMAJOR_AXIS":"6917.860","RCS_SIZE":"LARGE","RA_OF_ASC_NODE":"112.8909","MEAN_MOTION_DDOT":"0.0000000000000","PERIOD":"95.437","TIME_SYSTEM":"UTC","GP_ID":"195055113","DECAY_DATE":null,"MEAN_MOTION":"15.08846829","ECCENTRICITY":"0.00020220","MEAN_ELEMENT_THEORY":"SGP4","INCLINATION":"53.2193","EPOCH":"2022-01-31T22:00:01.999584","MEAN_MOTION_DOT":"-0.00020311","COUNTRY_CODE":"US","OBJECT_TYPE":"PAYLOAD","OBJECT_NAME":"STARLINK-3147","CENTER_NAME":"EARTH","NORAD_CAT_ID":"49410","TLE_LINE2":"2 49410  53.2193 112.8909 0002022  37.8862  59.6103 15.08846829  3607","SITE":"AFETR","REF_FRAME":"TEME","OBJECT_ID":"2021-104C","ARG_OF_PERICENTER":"37.8862","ELEMENT_SET_NO":"999","FILE":"3288814","CLASSIFICATION_TYPE":"U","MEAN_ANOMALY":"59.6103"},{"SEMIMAJOR_AXIS":"6846.158","BSTAR":"-0.02224900000000","APOAPSIS":"469.193","TLE_LINE1":"1 49411U 21104D   22031.91668981 -.00660129  00000-0 -22249-1 0  9999","EPHEMERIS_TYPE":"0","REV_AT_EPOCH":"365","LAUNCH_DATE":"2021-11-13","PERIAPSIS":"466.853","GP_ID":"195054864","DECAY_DATE":null,"PERIOD":"93.957","TIME_SYSTEM":"UTC","RA_OF_ASC_NODE":"104.3923","MEAN_MOTION_DDOT":"0.0000000000000","RCS_SIZE":"LARGE","OBJECT_NAME":"STARLINK-3162","CENTER_NAME":"EARTH","NORAD_CAT_ID":"49411","COUNTRY_CODE":"US","OBJECT_TYPE":"PAYLOAD","INCLINATION":"53.2174","MEAN_ELEMENT_THEORY":"SGP4","EPOCH":"2022-01-31T22:00:01.999584","MEAN_MOTION_DOT":"-0.00660129","MEAN_MOTION":"15.32612419","ECCENTRICITY":"0.00017090","MEAN_ANOMALY":"84.2134","ELEMENT_SET_NO":"999","FILE":"3288814","CLASSIFICATION_TYPE":"U","OBJECT_ID":"2021-104D","ARG_OF_PERICENTER":"40.4488","TLE_LINE2":"2 49411  53.2174 104.3923 0001709  40.4488  84.2134 15.32612419  3650","SITE":"AFETR","REF_FRAME":"TEME"},{"BSTAR":"-0.00127340000000","APOAPSIS":"540.949","SEMIMAJOR_AXIS":"6917.876","LAUNCH_DATE":"2021-11-13","PERIAPSIS":"538.533","TLE_LINE1":"1 49412U 21104E   22031.91668981 -.00020498  00000-0 -12734-2 0  9998","EPHEMERIS_TYPE":"0","REV_AT_EPOCH":"361","PERIOD":"95.437","TIME_SYSTEM":"UTC","GP_ID":"195056115","DECAY_DATE":null,"RCS_SIZE":"LARGE","RA_OF_ASC_NODE":"112.8690","MEAN_MOTION_DDOT":"0.0000000000000","COUNTRY_CODE":"US","OBJECT_TYPE":"PAYLOAD","OBJECT_NAME":"STARLINK-3144","CENTER_NAME":"EARTH","NORAD_CAT_ID":"49412","MEAN_MOTION":"15.08841375","ECCENTRICITY":"0.00017460","INCLINATION":"53.2202","MEAN_ELEMENT_THEORY":"SGP4","EPOCH":"2022-01-31T22:00:01.999584","MEAN_MOTION_DOT":"-0.00020498","ELEMENT_SET_NO":"999","FILE":"3288814","CLASSIFICATION_TYPE":"U","MEAN_ANOMALY":"33.5025","TLE_LINE2":"2 49412  53.2202 112.8690 0001746  43.9827  33.5025 15.08841375  3614","SITE":"AFETR","REF_FRAME":"TEME","OBJECT_ID":"2021-104E","ARG_OF_PERICENTER":"43.9827"},{"EPHEMERIS_TYPE":"0","TLE_LINE1":"1 49413U 21104F   22031.91668981 -.00660214  00000-0 -22171-1 0  9990","REV_AT_EPOCH":"365","LAUNCH_DATE":"2021-11-13","PERIAPSIS":"466.484","SEMIMAJOR_AXIS":"6845.815","BSTAR":"-0.02217100000000","APOAPSIS":"468.877","RA_OF_ASC_NODE":"104.3926","MEAN_MOTION_DDOT":"0.0000000000000","RCS_SIZE":"LARGE","DECAY_DATE":null,"GP_ID":"195056363","PERIOD":"93.950","TIME_SYSTEM":"UTC","EPOCH":"2022-01-31T22:00:01.999584","INCLINATION":"53.2174","MEAN_ELEMENT_THEORY":"SGP4","MEAN_MOTION_DOT":"-0.00660214","MEAN_MOTION":"15.32727624","ECCENTRICITY":"0.00017480","CENTER_NAME":"EARTH","OBJECT_NAME":"STARLINK-3157","NORAD_CAT_ID":"49413","OBJECT_TYPE":"PAYLOAD","COUNTRY_CODE":"US","ARG_OF_PERICENTER":"40.2868","OBJECT_ID":"2021-104F","SITE":"AFETR","TLE_LINE2":"2 49413  53.2174 104.3926 0001748  40.2868  97.3176 15.32727624  3654","REF_FRAME":"TEME","MEAN_ANOMALY":"97.3176","ELEMENT_SET_NO":"999","CLASSIFICATION_TYPE":"U","FILE":"3288814"},{"MEAN_ANOMALY":"77.6175","ELEMENT_SET_NO":"999","FILE":"3288814","CLASSIFICATION_TYPE":"U","OBJECT_ID":"2021-104G","ARG_OF_PERICENTER":"39.8800","TLE_LINE2":"2 49414  53.2180 112.8894 0002149  39.8800  77.6175 15.08842377  3607","SITE":"AFETR","REF_FRAME":"TEME","OBJECT_NAME":"STARLINK-3146","CENTER_NAME":"EARTH","NORAD_CAT_ID":"49414","COUNTRY_CODE":"US","OBJECT_TYPE":"PAYLOAD","MEAN_ELEMENT_THEORY":"SGP4","INCLINATION":"53.2180","EPOCH":"2022-01-31T22:00:01.999584","MEAN_MOTION_DOT":"-0.00019769","MEAN_MOTION":"15.08842377","ECCENTRICITY":"0.00021490","GP_ID":"195054614","DECAY_DATE":null,"TIME_SYSTEM":"UTC","PERIOD":"95.437","RA_OF_ASC_NODE":"112.8894","MEAN_MOTION_DDOT":"0.0000000000000","RCS_SIZE":"LARGE","SEMIMAJOR_AXIS":"6917.873","BSTAR":"-0.00122730000000","APOAPSIS":"541.225","TLE_LINE1":"1 49414U 21104G   22031.91668981 -.00019769  00000-0 -12273-2 0  9997","EPHEMERIS_TYPE":"0","REV_AT_EPOCH":"360","LAUNCH_DATE":"2021-11-13","PERIAPSIS":"538.251"},{"MEAN_MOTION_DDOT":"0.0000000000000","RA_OF_ASC_NODE":"104.3916","RCS_SIZE":"LARGE","GP_ID":"195055364","DECAY_DATE":null,"PERIOD":"93.943","TIME_SYSTEM":"UTC","REV_AT_EPOCH":"365","EPHEMERIS_TYPE":"0","TLE_LINE1":"1 49415U 21104H   22031.91668981 -.00660538  00000-0 -22102-1 0  9995","PERIAPSIS":"466.157","LAUNCH_DATE":"2021-11-13","SEMIMAJOR_AXIS":"6845.472","APOAPSIS":"468.517","BSTAR":"-0.02210200000000","ARG_OF_PERICENTER":"41.4319","OBJECT_ID":"2021-104H","REF_FRAME":"TEME","SITE":"AFETR","TLE_LINE2":"2 49415  53.2174 104.3916 0001724  41.4319 109.0806 15.32842986  3653","MEAN_ANOMALY":"109.0806","CLASSIFICATION_TYPE":"U","FILE":"3288814","ELEMENT_SET_NO":"999","MEAN_MOTION_DOT":"-0.00660538","EPOCH":"2022-01-31T22:00:01.999584","INCLINATION":"53.2174","MEAN_ELEMENT_THEORY":"SGP4","ECCENTRICITY":"0.00017240","MEAN_MOTION":"15.32842986","NORAD_CAT_ID":"49415","CENTER_NAME":"EARTH","OBJECT_NAME":"STARLINK-3159","OBJECT_TYPE":"PAYLOAD","COUNTRY_CODE":"US"},{"LAUNCH_DATE":"2021-11-13","PERIAPSIS":"538.392","TLE_LINE1":"1 49416U 21104J   22031.91668981 -.00020586  00000-0 -12789-2 0  9990","EPHEMERIS_TYPE":"0","REV_AT_EPOCH":"360","BSTAR":"-0.00127890000000","APOAPSIS":"541.086","SEMIMAJOR_AXIS":"6917.874","RCS_SIZE":"LARGE","RA_OF_ASC_NODE":"112.8869","MEAN_MOTION_DDOT":"0.0000000000000","PERIOD":"95.437","TIME_SYSTEM":"UTC","GP_ID":"195055616","DECAY_DATE":null,"MEAN_MOTION":"15.08842173","ECCENTRICITY":"0.00019470","MEAN_ELEMENT_THEORY":"SGP4","INCLINATION":"53.2154","EPOCH":"2022-01-31T22:00:01.999584","MEAN_MOTION_DOT":"-0.00020586","COUNTRY_CODE":"US","OBJECT_TYPE":"PAYLOAD","OBJECT_NAME":"STARLINK-3133","CENTER_NAME":"EARTH","NORAD_CAT_ID":"49416","TLE_LINE2":"2 49416  53.2154 112.8869 0001947  36.2782 121.2120 15.08842173  3607","SITE":"AFETR","REF_FRAME":"TEME","OBJECT_ID":"2021-104J","ARG_OF_PERICENTER":"36.2782","ELEMENT_SET_NO":"999","FILE":"3288814","CLASSIFICATION_TYPE":"U","MEAN_ANOMALY":"121.2120"},{"SEMIMAJOR_AXIS":"6841.469","BSTAR":"-0.00863660000000","APOAPSIS":"466.094","EPHEMERIS_TYPE":"0","TLE_LINE1":"1 49417U 21104K   22031.69160933 -.00279832  00000-0 -86366-2 0  9992","REV_AT_EPOCH":"1259","LAUNCH_DATE":"2021-11-13","PERIAPSIS":"460.573","DECAY_DATE":null,"GP_ID":"195055864","PERIOD":"93.861","TIME_SYSTEM":"UTC","RA_OF_ASC_NODE":"105.4529","MEAN_MOTION_DDOT":"0.0000000000000","RCS_SIZE":"LARGE","CENTER_NAME":"EARTH","OBJECT_NAME":"STARLINK-3154","NORAD_CAT_ID":"49417","OBJECT_TYPE":"PAYLOAD","COUNTRY_CODE":"US","EPOCH":"2022-01-31T16:35:55.046112","INCLINATION":"53.2147","MEAN_ELEMENT_THEORY":"SGP4","MEAN_MOTION_DOT":"-0.00279832","MEAN_MOTION":"15.34188495","ECCENTRICITY":"0.00040350","MEAN_ANOMALY":"317.9344","ELEMENT_SET_NO":"999","CLASSIFICATION_TYPE":"U","FILE":"3288814","ARG_OF_PERICENTER":"42.1969","OBJECT_ID":"2021-104K","SITE":"AFETR","TLE_LINE2":"2 49417  53.2147 105.4529 0004035  42.1969 317.9344 15.34188495 12594","REF_FRAME":"TEME"},{"EPHEMERIS_TYPE":"0","TLE_LINE1":"1 49418U 21104L   22031.91668981 -.00020802  00000-0 -12922-2 0  9992","REV_AT_EPOCH":"360","LAUNCH_DATE":"2021-11-13","PERIAPSIS":"538.302","SEMIMAJOR_AXIS":"6917.845","BSTAR":"-0.00129220000000","APOAPSIS":"541.118","RA_OF_ASC_NODE":"112.8857","MEAN_MOTION_DDOT":"0.0000000000000","RCS_SIZE":"LARGE","DECAY_DATE":null,"GP_ID":"195055114","PERIOD":"95.437","TIME_SYSTEM":"UTC","EPOCH":"2022-01-31T22:00:01.999584","INCLINATION":"53.2144","MEAN_ELEMENT_THEORY":"SGP4","MEAN_MOTION_DOT":"-0.00020802","MEAN_MOTION":"15.08851517","ECCENTRICITY":"0.00020350","CENTER_NAME":"EARTH","OBJECT_NAME":"STARLINK-3111","NORAD_CAT_ID":"49418","OBJECT_TYPE":"PAYLOAD","COUNTRY_CODE":"US","ARG_OF_PERICENTER":"42.5693","OBJECT_ID":"2021-104L","SITE":"AFETR","TLE_LINE2":"2 49418  53.2144 112.8857 0002035  42.5693 134.8603 15.08851517  3603","REF_FRAME":"TEME","MEAN_ANOMALY":"134.8603","ELEMENT_SET_NO":"999","CLASSIFICATION_TYPE":"U","FILE":"3288814"}];
